#cP2020  1  1  0  0  0.00000000      96   u+U IGb08 FIT  WHU
## 2086 259200.00000000   900.00000000 58849     0.000000000
+  109   G01G02G03G04G05G06G07G08G09G10G11G12G13G14G15G16G17
+        G18G19G20G21G22G23G24G25G26G27G28G29G30G31G32R01R02
+        R03R05R07R08R09R11R12R13R14R15R16R17R18R19R20R21R22
+        R23E01E02E03E04E05E07E08E09E11E12E14E18E19E21E24E25
+        E26E27E30E31E33E36C01C02C03C04C05C06C07C08C09C10C11
+        C12C13C14C16C19C20C21C22C23C24C25C26C27C28C29C30C33
+        C34C35C36J01J02J03J07  0  0  0  0  0  0  0  0  0  0
+          0  0  0  0  0  0  0  0  0  0  0  0  0  0  0  0  0
+          0  0  0  0  0  0  0  0  0  0  0  0  0  0  0  0  0
+          0  0  0  0  0  0  0  0  0  0  0  0  0  0  0  0  0
++         4  3  3  4  3  3  3  3  4  3  3  3  3  3  3  4  3
++         3  3  3  2  3  3  2  3  4  3  3  3  3  3  3  4  3
++         4  3  4  3  3  3  4  4  3  4  4  3  3  4  3  3  3
++         3  9  9  9  9  9  9  9  9  9  9  0  0  9  9  9  9
++         9  9  9  9  9  9  9  9 10  0 10  9  9 10  8 10  9
++         9 10  9  8 10 10 10 10 10 10 10 10 10 10 10 10 10
++        10  9 10  0  9  9  0  0  0  0  0  0  0  0  0  0  0
++         0  0  0  0  0  0  0  0  0  0  0  0  0  0  0  0  0
++         0  0  0  0  0  0  0  0  0  0  0  0  0  0  0  0  0
++         0  0  0  0  0  0  0  0  0  0  0  0  0  0  0  0  0
%c M  cc GPS ccc cccc cccc cccc cccc ccccc ccccc ccccc ccccc
%c cc cc ccc ccc cccc cccc cccc cccc ccccc ccccc ccccc ccccc
%f  1.2500000  1.025000000  0.00000000000  0.000000000000000
%f  0.0000000  0.000000000  0.00000000000  0.000000000000000
%i    0    0    0    0      0      0      0      0         0
%i    0    0    0    0      0      0      0      0         0
/* GNSS RESEARCH CENTER, WUHAN UNIVERSITY (WHU), P. R. CHINA
/* POSITION AND NAVIGATION DATA ANALYST (PANDA) SOFTWARE    
/* PCV:IGS08_2084 OL/AL:FES2004  NONE     NN ORB:CoM CLK:CoN
/*
*  2020  1  1 13  0  0.00000000
PG01 -13814.670564  22107.859447  -4273.557108   -248.472683
PG02  19182.321781  -9317.950929 -15129.918646   -377.598149
PG03  -8156.591656  13737.059992 -21262.122120    -63.739142
PG04  -3272.489166  21621.614526 -15056.276101    -28.192688
PG05  25050.470003  -3255.539595   8378.068802     -5.486298
PG06  15004.910831   4240.228130 -21454.880352   -170.177259
PG07    182.210385  19850.137172  17694.393616   -182.598007
PG08  -9861.518262  13252.612831  20779.405805    -18.737903
PG09   5560.286332  25136.577450  -6561.062463   -122.272511
PG10 -20524.687342 -11584.909004  12541.655165   -193.684594
PG11  -8914.368750  24609.675692   4832.037019   -402.635224
PG12  13014.905841 -11238.590217 -20415.049333    167.022122
PG13  14367.001865  -4376.400916  21780.747095    -22.866410
PG14 -16397.029737 -10437.899013 -17855.034869    -41.401093
PG15   8811.384502 -14944.124809  19711.058488   -261.637369
PG16 -25555.625811   -509.380066   7828.602259   -109.019232
PG17  14049.907877  19834.665034 -10352.391597    191.021463
PG18 -17086.155355  19806.272754   3802.391613    110.579449
PG19  15745.608476  13205.224635 -17112.781761   -218.428628
PG20 -11308.061831 -14372.918430  19231.295837    527.738481
PG21  -3756.160837 -18828.692155  19237.914777    -62.186344
PG22 -16220.949271  11846.624508 -17106.701386   -780.245004
PG23  -1294.250576  22259.625407 -13787.810769   -145.902387
PG24  13946.155324 -22320.633173  -1678.852776     -6.982698
PG25  -2223.794400 -15438.045279 -21747.422161    -16.770326
PG26 -26265.225684  -4256.634854  -1953.950567    118.095059
PG27 -15340.285131    863.192947  21588.531598   -168.071353
PG28  20005.057837  13028.173618  12093.819959    747.641872
PG29  -3555.853751 -25403.605505  -6877.635012      3.605150
PG30  10014.282180  12305.432789  21314.693450   -119.201917
PG31 -17011.335855  -1950.080967 -20448.999170    -13.660041
PG32 -15871.629122 -18406.405200 -10809.983436    172.536319
PR01  21282.717233   9265.098809  10585.747378     54.973105
PR02   9641.419184  -6209.389351  22811.220001    405.145325
PR03  -6494.807480 -16145.946934  18703.625706      7.446385
PR05 -20481.796862  -7937.195491 -12985.601614     42.284498
PR07   6946.751618  16276.579937 -18323.781800    -31.481726
PR08  18827.781433  16724.915515  -3963.568620     13.360383
PR09 -18436.784947  13655.199403  11094.393493    109.124974
PR11  12988.460630   5668.164997  21233.256266     14.628228
PR12  23089.516494  -4726.471553   9748.622177     93.021055
PR13  20309.297361 -13048.266608  -8254.336859    -32.991745
PR14   5741.600420 -13291.728202 -20990.691574     46.617271
PR15 -12100.654693  -6048.119976 -21606.615065    105.572201
PR16 -23207.547257   5352.197601  -9329.076825     -0.761607
PR17   2752.735547 -25307.267001   1273.249687    288.688001
PR18  -5139.023306 -18569.747921  16766.761353     19.995382
PR19 -10165.998916  -2349.874233  23283.264399    -71.858566
PR20  -9879.469597  17509.967404  15686.821550   -400.395915
PR21  -2427.990043  25321.598850  -2084.461917    -95.442343
PR22   6238.405604  16100.516341 -18712.062319     -7.959261
PR23  10894.468513  -4724.169033 -22575.739872    276.947669
PE01  14350.955727  12822.821038  22490.587910   -764.928843
PE02 -14453.873887 -12779.824962 -22451.850080    102.327704
PE03 -17295.052164 -23901.560879   2312.890094   -250.679399
PE04  22874.084670  11033.460205  15202.527874   -437.196276
PE05  -1513.131516 -22910.549461  18675.282284   -418.230802
PE07 -15050.564077   8535.834782 -24017.513835   -321.189680
PE08 -22868.053094 -10747.177395 -15414.818398   6240.556002
PE09  14844.642527  -8594.909730  24121.578574   6202.302554
PE11  17348.235155 -19052.104768 -14575.926533    604.668644
PE12  16560.973632   1864.675933 -24453.698281   6022.495231
PE14  -1949.960419  22538.217449  10951.003858   -852.316338
PE18  11390.666531 -20728.552710 -20793.628210   -948.604681
PE19  16013.562932  24505.617613  -4373.553702     -2.574357
PE21  -7819.725095  16791.133618  23090.766392   -574.989237
PE24  25610.357044 -10825.719615 -10123.957270   5685.391659
PE25   7923.330992 -16781.233639 -23051.287866   -500.395919
PE26  -7866.191199  28284.353460  -3807.036588   3696.407629
PE27 -25577.442685  10945.989765  10129.400293    312.428097
PE30 -28224.892613  -1547.400041  -8818.668327   4258.933719
PE31  28247.388545   1316.988910   8749.891359   -471.559239
PE33   6136.327096  21109.508561 -19807.718470   -471.619239
PE36   7832.710135 -28317.676474   3605.707413    616.478786
PC01 -32286.436993  27105.395706    904.918543    329.074761
PC02   4393.263643  41919.649936  -1023.969469    639.088412
PC03 -14777.167665  39457.060454   -155.811973    366.384612
PC04 -39601.221575  14517.729485    468.165762   -431.254873
PC05  21866.988546  35996.237695  -1288.163682   -114.926672
PC06  -7114.476076  32524.072996 -25298.978065    270.512857
PC07 -18021.032589  22724.655446  30657.960097    128.905553
PC08 -22257.238801  35357.526750  -6772.819886    -71.102435
PC09   3082.094728  39536.168723 -13533.025451    229.794677
PC10   -853.544926  26117.881085  33271.966812   -517.896171
PC11 -13847.594219 -13426.712957  20211.005149    -95.132746
PC12  -5043.176667 -26874.465505   5531.856941    306.310446
PC13 -11342.465811  35969.700697 -19028.947706    184.588168
PC14 -24753.730864 -12807.617579    683.576940    396.097797
PC16  -4920.626517  33869.985987 -24476.530042   -881.153257
PC19  25896.836662   6364.680250   8257.096681    286.042737
PC20  20293.457462  16959.322196  -8933.232316   -496.222399
PC21  -2351.311701 -17798.770224  21370.494061     58.179486
PC22  16576.795652  -8076.051128  20950.984836   -607.177884
PC23 -22405.266277  16456.198492   2484.309444   -869.403386
PC24 -10953.484601 -12059.266898 -22664.077467   -892.606658
PC25 -23740.459910   4045.942030 -14119.991097   -466.814758
PC26   6949.605050 -20116.942333 -18034.913730    517.847560
PC27  -1344.949734  27642.645780   3497.864302    252.772502
PC28 -12186.969764  16935.232303  18544.345062    243.761894
PC29  15996.668435   3011.298779 -22666.520208    167.629979
PC30  10946.208355  21930.020891 -13319.045581    249.216893
PC33 -25925.801264  -6291.844558  -8165.424961   -734.139375
PC34 -11078.569097 -21718.233745  13597.747652   -356.651657
PC35  11695.971683 -17254.576409 -18562.126680   -720.482124
PC36  23748.703248  -3301.663531  14300.351470   -857.711634
PJ01 -26058.771605  16441.432834 -24185.567488   -326.271779
PJ02 -30999.394287  26832.542317  14519.401025     -0.560945
PJ03 -25079.890933  26719.277323  25879.283976    -11.358237
PJ07 -25413.764764  33652.070074    -32.709385      0.010704
EOF
